ONEWEB-0153             
1 48044U 21025C   21134.25001157 -.01462679  00000-0 -25106+0 0  9992
2 48044  87.5139 332.9554 0012632 101.3750 331.8478 14.72291796  8883
ONEWEB-0154             
1 48045U 21025D   21133.91667824 -.01380612  00000-0 -29117+0 0  9996
2 48045  87.4643 333.0854 0009479  92.2670  55.6516 14.63046423  8825
ONEWEB-0116             
1 48046U 21025E   21133.91667824 -.01394204  00000-0 -22226+0 0  9993
2 48046  87.5334 333.0011 0009576  87.6153  16.3636 14.75341249  8869
ONEWEB-0150             
1 48047U 21025F   21134.25001157 -.01431356  00000-0 -25053+0 0  9994
2 48047  87.5271 332.9298 0010216  77.4477  10.9575 14.71399054  8892
ONEWEB-0107             
1 48048U 21025G   21133.91667824 -.01370619  00000-0 -26630+0 0  9992
2 48048  87.4869 333.0591 0013170  97.5908 128.2400 14.66636388  8840
ONEWEB-0101             
1 48049U 21025H   21133.91667824 -.01388854  00000-0 -30488+0 0  9999
2 48049  87.4561 333.0947 0010404  84.2087 234.1823 14.61251931  8818
ONEWEB-0113             
1 48050U 21025J   21131.81284216 -.00312224  00000-0 -43185-1 0  9995
2 48050  87.4804 333.6743 0014169  75.6138 284.6656 14.79989497  8541
ONEWEB-0112             
1 48051U 21025K   21133.91667824 -.01342564  00000-0 -19144+0 0  9996
2 48051  87.5194 332.9923 0008815  90.7549 321.9772 14.79947495  8852
ONEWEB-0156             
1 48052U 21025L   21133.91667824 -.01334729  00000-0 -21086+0 0  9999
2 48052  87.4905 333.0581 0012799  96.2657 301.1059 14.75549372  8824
ONEWEB-0161             
1 48053U 21025M   21133.91667824 -.01387944  00000-0 -29705+0 0  9993
2 48053  87.4618 333.0923 0010326  88.9932 353.5301 14.62395141  8813
ONEWEB-0158             
1 48054U 21025N   21134.16667824 -.01436190  00000-0 -22409+0 0  9994
2 48054  87.5444 332.9125 0011029  94.9928  32.3890 14.76338727  8892
ONEWEB-0157             
1 48055U 21025P   21133.91667824 -.01348244  00000-0 -22641+0 0  9997
2 48055  87.5563 333.0715 0010831  78.0813  32.3149 14.72984182  8859
ONEWEB-0162             
1 48056U 21025Q   21133.91667824 -.01370174  00000-0 -29272+0 0  9992
2 48056  87.4687 333.0999 0009622  82.6275 313.6615 14.62438141  8827
ONEWEB-0155             
1 48057U 21025R   21134.25001157 -.00108888  00000-0 -13823-1 0  9999
2 48057  87.5405 332.8735 0012803  89.5760 333.7161 14.82374526  8931
ONEWEB-0149             
1 48058U 21025S   21133.91667824 -.01377914  00000-0 -27714+0 0  9992
2 48058  87.4800 333.0797 0011477 103.2847 338.4234 14.65139263  8815
ONEWEB-0148             
1 48059U 21025T   21133.91667824 -.01365996  00000-0 -25235+0 0  9996
2 48059  87.4986 333.0260 0012086  84.7749  50.1437 14.68861356  8852
