[
{
"OBJECT_NAME": "ONEWEB-0153",
"OBJECT_ID": "2021-025C",
"EPOCH": "2021-05-14T06:00:00.999648",
"MEAN_MOTION": 14.72291796,
"ECCENTRICITY": 0.0012632,
"INCLINATION": 87.5139,
"RA_OF_ASC_NODE": 332.9554,
"ARG_OF_PERICENTER": 101.375,
"MEAN_ANOMALY": 331.8478,
"EPHEMERIS_TYPE": 0,
"CLASSIFICATION_TYPE": "U",
"NORAD_CAT_ID": 48044,
"ELEMENT_SET_NO": 999,
"REV_AT_EPOCH": 888,
"BSTAR": -0.25106,
"MEAN_MOTION_DOT": -0.01462679,
"MEAN_MOTION_DDOT": 0
},
{
"OBJECT_NAME": "ONEWEB-0154",
"OBJECT_ID": "2021-025D",
"EPOCH": "2021-05-13T22:00:00.999936",
"MEAN_MOTION": 14.63046423,
"ECCENTRICITY": 0.0009479,
"INCLINATION": 87.4643,
"RA_OF_ASC_NODE": 333.0854,
"ARG_OF_PERICENTER": 92.267,
"MEAN_ANOMALY": 55.6516,
"EPHEMERIS_TYPE": 0,
"CLASSIFICATION_TYPE": "U",
"NORAD_CAT_ID": 48045,
"ELEMENT_SET_NO": 999,
"REV_AT_EPOCH": 882,
"BSTAR": -0.29117,
"MEAN_MOTION_DOT": -0.01380612,
"MEAN_MOTION_DDOT": 0
},
{
"OBJECT_NAME": "ONEWEB-0116",
"OBJECT_ID": "2021-025E",
"EPOCH": "2021-05-13T22:00:00.999936",
"MEAN_MOTION": 14.75341249,
"ECCENTRICITY": 0.0009576,
"INCLINATION": 87.5334,
"RA_OF_ASC_NODE": 333.0011,
"ARG_OF_PERICENTER": 87.6153,
"MEAN_ANOMALY": 16.3636,
"EPHEMERIS_TYPE": 0,
"CLASSIFICATION_TYPE": "U",
"NORAD_CAT_ID": 48046,
"ELEMENT_SET_NO": 999,
"REV_AT_EPOCH": 886,
"BSTAR": -0.22226,
"MEAN_MOTION_DOT": -0.01394204,
"MEAN_MOTION_DDOT": 0
},
{
"OBJECT_NAME": "ONEWEB-0150",
"OBJECT_ID": "2021-025F",
"EPOCH": "2021-05-14T06:00:00.999648",
"MEAN_MOTION": 14.71399054,
"ECCENTRICITY": 0.0010216,
"INCLINATION": 87.5271,
"RA_OF_ASC_NODE": 332.9298,
"ARG_OF_PERICENTER": 77.4477,
"MEAN_ANOMALY": 10.9575,
"EPHEMERIS_TYPE": 0,
"CLASSIFICATION_TYPE": "U",
"NORAD_CAT_ID": 48047,
"ELEMENT_SET_NO": 999,
"REV_AT_EPOCH": 889,
"BSTAR": -0.25053,
"MEAN_MOTION_DOT": -0.01431356,
"MEAN_MOTION_DDOT": 0
},
{
"OBJECT_NAME": "ONEWEB-0107",
"OBJECT_ID": "2021-025G",
"EPOCH": "2021-05-13T22:00:00.999936",
"MEAN_MOTION": 14.66636388,
"ECCENTRICITY": 0.001317,
"INCLINATION": 87.4869,
"RA_OF_ASC_NODE": 333.0591,
"ARG_OF_PERICENTER": 97.5908,
"MEAN_ANOMALY": 128.24,
"EPHEMERIS_TYPE": 0,
"CLASSIFICATION_TYPE": "U",
"NORAD_CAT_ID": 48048,
"ELEMENT_SET_NO": 999,
"REV_AT_EPOCH": 884,
"BSTAR": -0.2663,
"MEAN_MOTION_DOT": -0.01370619,
"MEAN_MOTION_DDOT": 0
},
{
"OBJECT_NAME": "ONEWEB-0101",
"OBJECT_ID": "2021-025H",
"EPOCH": "2021-05-13T22:00:00.999936",
"MEAN_MOTION": 14.61251931,
"ECCENTRICITY": 0.0010404,
"INCLINATION": 87.4561,
"RA_OF_ASC_NODE": 333.0947,
"ARG_OF_PERICENTER": 84.2087,
"MEAN_ANOMALY": 234.1823,
"EPHEMERIS_TYPE": 0,
"CLASSIFICATION_TYPE": "U",
"NORAD_CAT_ID": 48049,
"ELEMENT_SET_NO": 999,
"REV_AT_EPOCH": 881,
"BSTAR": -0.30488,
"MEAN_MOTION_DOT": -0.01388854,
"MEAN_MOTION_DDOT": 0
},
{
"OBJECT_NAME": "ONEWEB-0113",
"OBJECT_ID": "2021-025J",
"EPOCH": "2021-05-11T19:30:29.562624",
"MEAN_MOTION": 14.79989497,
"ECCENTRICITY": 0.0014169,
"INCLINATION": 87.4804,
"RA_OF_ASC_NODE": 333.6743,
"ARG_OF_PERICENTER": 75.6138,
"MEAN_ANOMALY": 284.6656,
"EPHEMERIS_TYPE": 0,
"CLASSIFICATION_TYPE": "U",
"NORAD_CAT_ID": 48050,
"ELEMENT_SET_NO": 999,
"REV_AT_EPOCH": 854,
"BSTAR": -0.043185,
"MEAN_MOTION_DOT": -0.00312224,
"MEAN_MOTION_DDOT": 0
},
{
"OBJECT_NAME": "ONEWEB-0112",
"OBJECT_ID": "2021-025K",
"EPOCH": "2021-05-13T22:00:00.999936",
"MEAN_MOTION": 14.79947495,
"ECCENTRICITY": 0.0008815,
"INCLINATION": 87.5194,
"RA_OF_ASC_NODE": 332.9923,
"ARG_OF_PERICENTER": 90.7549,
"MEAN_ANOMALY": 321.9772,
"EPHEMERIS_TYPE": 0,
"CLASSIFICATION_TYPE": "U",
"NORAD_CAT_ID": 48051,
"ELEMENT_SET_NO": 999,
"REV_AT_EPOCH": 885,
"BSTAR": -0.19144,
"MEAN_MOTION_DOT": -0.01342564,
"MEAN_MOTION_DDOT": 0
},
{
"OBJECT_NAME": "ONEWEB-0156",
"OBJECT_ID": "2021-025L",
"EPOCH": "2021-05-13T22:00:00.999936",
"MEAN_MOTION": 14.75549372,
"ECCENTRICITY": 0.0012799,
"INCLINATION": 87.4905,
"RA_OF_ASC_NODE": 333.0581,
"ARG_OF_PERICENTER": 96.2657,
"MEAN_ANOMALY": 301.1059,
"EPHEMERIS_TYPE": 0,
"CLASSIFICATION_TYPE": "U",
"NORAD_CAT_ID": 48052,
"ELEMENT_SET_NO": 999,
"REV_AT_EPOCH": 882,
"BSTAR": -0.21086,
"MEAN_MOTION_DOT": -0.01334729,
"MEAN_MOTION_DDOT": 0
},
{
"OBJECT_NAME": "ONEWEB-0161",
"OBJECT_ID": "2021-025M",
"EPOCH": "2021-05-13T22:00:00.999936",
"MEAN_MOTION": 14.62395141,
"ECCENTRICITY": 0.0010326,
"INCLINATION": 87.4618,
"RA_OF_ASC_NODE": 333.0923,
"ARG_OF_PERICENTER": 88.9932,
"MEAN_ANOMALY": 353.5301,
"EPHEMERIS_TYPE": 0,
"CLASSIFICATION_TYPE": "U",
"NORAD_CAT_ID": 48053,
"ELEMENT_SET_NO": 999,
"REV_AT_EPOCH": 881,
"BSTAR": -0.29705,
"MEAN_MOTION_DOT": -0.01387944,
"MEAN_MOTION_DDOT": 0
},
{
"OBJECT_NAME": "ONEWEB-0158",
"OBJECT_ID": "2021-025N",
"EPOCH": "2021-05-14T04:00:00.999936",
"MEAN_MOTION": 14.76338727,
"ECCENTRICITY": 0.0011029,
"INCLINATION": 87.5444,
"RA_OF_ASC_NODE": 332.9125,
"ARG_OF_PERICENTER": 94.9928,
"MEAN_ANOMALY": 32.389,
"EPHEMERIS_TYPE": 0,
"CLASSIFICATION_TYPE": "U",
"NORAD_CAT_ID": 48054,
"ELEMENT_SET_NO": 999,
"REV_AT_EPOCH": 889,
"BSTAR": -0.22409,
"MEAN_MOTION_DOT": -0.0143619,
"MEAN_MOTION_DDOT": 0
},
{
"OBJECT_NAME": "ONEWEB-0157",
"OBJECT_ID": "2021-025P",
"EPOCH": "2021-05-13T22:00:00.999936",
"MEAN_MOTION": 14.72984182,
"ECCENTRICITY": 0.0010831,
"INCLINATION": 87.5563,
"RA_OF_ASC_NODE": 333.0715,
"ARG_OF_PERICENTER": 78.0813,
"MEAN_ANOMALY": 32.3149,
"EPHEMERIS_TYPE": 0,
"CLASSIFICATION_TYPE": "U",
"NORAD_CAT_ID": 48055,
"ELEMENT_SET_NO": 999,
"REV_AT_EPOCH": 885,
"BSTAR": -0.22641,
"MEAN_MOTION_DOT": -0.01348244,
"MEAN_MOTION_DDOT": 0
},
{
"OBJECT_NAME": "ONEWEB-0162",
"OBJECT_ID": "2021-025Q",
"EPOCH": "2021-05-13T22:00:00.999936",
"MEAN_MOTION": 14.62438141,
"ECCENTRICITY": 0.0009622,
"INCLINATION": 87.4687,
"RA_OF_ASC_NODE": 333.0999,
"ARG_OF_PERICENTER": 82.6275,
"MEAN_ANOMALY": 313.6615,
"EPHEMERIS_TYPE": 0,
"CLASSIFICATION_TYPE": "U",
"NORAD_CAT_ID": 48056,
"ELEMENT_SET_NO": 999,
"REV_AT_EPOCH": 882,
"BSTAR": -0.29272,
"MEAN_MOTION_DOT": -0.01370174,
"MEAN_MOTION_DDOT": 0
},
{
"OBJECT_NAME": "ONEWEB-0155",
"OBJECT_ID": "2021-025R",
"EPOCH": "2021-05-14T06:00:00.999648",
"MEAN_MOTION": 14.82374526,
"ECCENTRICITY": 0.0012803,
"INCLINATION": 87.5405,
"RA_OF_ASC_NODE": 332.8735,
"ARG_OF_PERICENTER": 89.576,
"MEAN_ANOMALY": 333.7161,
"EPHEMERIS_TYPE": 0,
"CLASSIFICATION_TYPE": "U",
"NORAD_CAT_ID": 48057,
"ELEMENT_SET_NO": 999,
"REV_AT_EPOCH": 893,
"BSTAR": -0.013823,
"MEAN_MOTION_DOT": -0.00108888,
"MEAN_MOTION_DDOT": 0
},
{
"OBJECT_NAME": "ONEWEB-0149",
"OBJECT_ID": "2021-025S",
"EPOCH": "2021-05-13T22:00:00.999936",
"MEAN_MOTION": 14.65139263,
"ECCENTRICITY": 0.0011477,
"INCLINATION": 87.48,
"RA_OF_ASC_NODE": 333.0797,
"ARG_OF_PERICENTER": 103.2847,
"MEAN_ANOMALY": 338.4234,
"EPHEMERIS_TYPE": 0,
"CLASSIFICATION_TYPE": "U",
"NORAD_CAT_ID": 48058,
"ELEMENT_SET_NO": 999,
"REV_AT_EPOCH": 881,
"BSTAR": -0.27714,
"MEAN_MOTION_DOT": -0.01377914,
"MEAN_MOTION_DDOT": 0
},
{
"OBJECT_NAME": "ONEWEB-0148",
"OBJECT_ID": "2021-025T",
"EPOCH": "2021-05-13T22:00:00.999936",
"MEAN_MOTION": 14.68861356,
"ECCENTRICITY": 0.0012086,
"INCLINATION": 87.4986,
"RA_OF_ASC_NODE": 333.026,
"ARG_OF_PERICENTER": 84.7749,
"MEAN_ANOMALY": 50.1437,
"EPHEMERIS_TYPE": 0,
"CLASSIFICATION_TYPE": "U",
"NORAD_CAT_ID": 48059,
"ELEMENT_SET_NO": 999,
"REV_AT_EPOCH": 885,
"BSTAR": -0.25235,
"MEAN_MOTION_DOT": -0.01365996,
"MEAN_MOTION_DDOT": 0
}
]